<?xml version="1.0" encoding="UTF-8"?>
<ndm xmlns:xsi="http://www.w3.org/2001/XMLSchema-instance" xsi:noNamespaceSchemaLocation="https://sanaregistry.org/r/ndmxml_unqualified/ndmxml-2.0.0-master-2.0.xsd">
<omm id="CCSDS_OMM_VERS" version="2.0">
<header><CREATION_DATE/><ORIGINATOR/></header><body><segment><metadata><OBJECT_NAME>ONEWEB-0112</OBJECT_NAME><OBJECT_ID>2021-025K</OBJECT_ID><CENTER_NAME>EARTH</CENTER_NAME><REF_FRAME>TEME</REF_FRAME><TIME_SYSTEM>UTC</TIME_SYSTEM><MEAN_ELEMENT_THEORY>SGP4</MEAN_ELEMENT_THEORY></metadata><data><meanElements><EPOCH>2025-10-28T14:32:36.058560</EPOCH><MEAN_MOTION>13.13472733</MEAN_MOTION><ECCENTRICITY>.00017962</ECCENTRICITY><INCLINATION>87.9038</INCLINATION><RA_OF_ASC_NODE>6.2205</RA_OF_ASC_NODE><ARG_OF_PERICENTER>97.9364</ARG_OF_PERICENTER><MEAN_ANOMALY>262.1969</MEAN_ANOMALY></meanElements><tleParameters><EPHEMERIS_TYPE>0</EPHEMERIS_TYPE><CLASSIFICATION_TYPE>U</CLASSIFICATION_TYPE><NORAD_CAT_ID>48051</NORAD_CAT_ID><ELEMENT_SET_NO>999</ELEMENT_SET_NO><REV_AT_EPOCH>22319</REV_AT_EPOCH><BSTAR>-.38271409E-3</BSTAR><MEAN_MOTION_DOT>-.127E-5</MEAN_MOTION_DOT><MEAN_MOTION_DDOT>0</MEAN_MOTION_DDOT></tleParameters></data></segment></body></omm>
<omm id="CCSDS_OMM_VERS" version="2.0">
<header><CREATION_DATE/><ORIGINATOR/></header><body><segment><metadata><OBJECT_NAME>ONEWEB-0156</OBJECT_NAME><OBJECT_ID>2021-025L</OBJECT_ID><CENTER_NAME>EARTH</CENTER_NAME><REF_FRAME>TEME</REF_FRAME><TIME_SYSTEM>UTC</TIME_SYSTEM><MEAN_ELEMENT_THEORY>SGP4</MEAN_ELEMENT_THEORY></metadata><data><meanElements><EPOCH>2025-10-28T14:44:48.109344</EPOCH><MEAN_MOTION>13.13472137</MEAN_MOTION><ECCENTRICITY>.00018854</ECCENTRICITY><INCLINATION>87.9036</INCLINATION><RA_OF_ASC_NODE>6.2306</RA_OF_ASC_NODE><ARG_OF_PERICENTER>95.3764</ARG_OF_PERICENTER><MEAN_ANOMALY>264.7581</MEAN_ANOMALY></meanElements><tleParameters><EPHEMERIS_TYPE>0</EPHEMERIS_TYPE><CLASSIFICATION_TYPE>U</CLASSIFICATION_TYPE><NORAD_CAT_ID>48052</NORAD_CAT_ID><ELEMENT_SET_NO>999</ELEMENT_SET_NO><REV_AT_EPOCH>22317</REV_AT_EPOCH><BSTAR>.43366806E-4</BSTAR><MEAN_MOTION_DOT>.29E-6</MEAN_MOTION_DOT><MEAN_MOTION_DDOT>0</MEAN_MOTION_DDOT></tleParameters></data></segment></body></omm>
<omm id="CCSDS_OMM_VERS" version="2.0">
<header><CREATION_DATE/><ORIGINATOR/></header><body><segment><metadata><OBJECT_NAME>ONEWEB-0161</OBJECT_NAME><OBJECT_ID>2021-025M</OBJECT_ID><CENTER_NAME>EARTH</CENTER_NAME><REF_FRAME>TEME</REF_FRAME><TIME_SYSTEM>UTC</TIME_SYSTEM><MEAN_ELEMENT_THEORY>SGP4</MEAN_ELEMENT_THEORY></metadata><data><meanElements><EPOCH>2025-10-28T04:59:45.770496</EPOCH><MEAN_MOTION>13.13470664</MEAN_MOTION><ECCENTRICITY>.00019205</ECCENTRICITY><INCLINATION>87.9031</INCLINATION><RA_OF_ASC_NODE>6.3293</RA_OF_ASC_NODE><ARG_OF_PERICENTER>94.5350</ARG_OF_PERICENTER><MEAN_ANOMALY>265.5999</MEAN_ANOMALY></meanElements><tleParameters><EPHEMERIS_TYPE>0</EPHEMERIS_TYPE><CLASSIFICATION_TYPE>U</CLASSIFICATION_TYPE><NORAD_CAT_ID>48053</NORAD_CAT_ID><ELEMENT_SET_NO>999</ELEMENT_SET_NO><REV_AT_EPOCH>22305</REV_AT_EPOCH><BSTAR>-.73075246E-3</BSTAR><MEAN_MOTION_DOT>-.254E-5</MEAN_MOTION_DOT><MEAN_MOTION_DDOT>0</MEAN_MOTION_DDOT></tleParameters></data></segment></body></omm>
<omm id="CCSDS_OMM_VERS" version="2.0">
<header><CREATION_DATE/><ORIGINATOR/></header><body><segment><metadata><OBJECT_NAME>ONEWEB-0158</OBJECT_NAME><OBJECT_ID>2021-025N</OBJECT_ID><CENTER_NAME>EARTH</CENTER_NAME><REF_FRAME>TEME</REF_FRAME><TIME_SYSTEM>UTC</TIME_SYSTEM><MEAN_ELEMENT_THEORY>SGP4</MEAN_ELEMENT_THEORY></metadata><data><meanElements><EPOCH>2025-10-28T14:59:26.009376</EPOCH><MEAN_MOTION>13.13471258</MEAN_MOTION><ECCENTRICITY>.00018344</ECCENTRICITY><INCLINATION>87.9038</INCLINATION><RA_OF_ASC_NODE>6.2285</RA_OF_ASC_NODE><ARG_OF_PERICENTER>110.2930</ARG_OF_PERICENTER><MEAN_ANOMALY>249.8397</MEAN_ANOMALY></meanElements><tleParameters><EPHEMERIS_TYPE>0</EPHEMERIS_TYPE><CLASSIFICATION_TYPE>U</CLASSIFICATION_TYPE><NORAD_CAT_ID>48054</NORAD_CAT_ID><ELEMENT_SET_NO>999</ELEMENT_SET_NO><REV_AT_EPOCH>22323</REV_AT_EPOCH><BSTAR>.60165813E-3</BSTAR><MEAN_MOTION_DOT>.232E-5</MEAN_MOTION_DOT><MEAN_MOTION_DDOT>0</MEAN_MOTION_DDOT></tleParameters></data></segment></body></omm>
<omm id="CCSDS_OMM_VERS" version="2.0">
<header><CREATION_DATE/><ORIGINATOR/></header><body><segment><metadata><OBJECT_NAME>ONEWEB-0157</OBJECT_NAME><OBJECT_ID>2021-025P</OBJECT_ID><CENTER_NAME>EARTH</CENTER_NAME><REF_FRAME>TEME</REF_FRAME><TIME_SYSTEM>UTC</TIME_SYSTEM><MEAN_ELEMENT_THEORY>SGP4</MEAN_ELEMENT_THEORY></metadata><data><meanElements><EPOCH>2025-10-28T13:46:18.659712</EPOCH><MEAN_MOTION>13.13470154</MEAN_MOTION><ECCENTRICITY>.00021462</ECCENTRICITY><INCLINATION>87.9036</INCLINATION><RA_OF_ASC_NODE>6.2454</RA_OF_ASC_NODE><ARG_OF_PERICENTER>91.9246</ARG_OF_PERICENTER><MEAN_ANOMALY>268.2129</MEAN_ANOMALY></meanElements><tleParameters><EPHEMERIS_TYPE>0</EPHEMERIS_TYPE><CLASSIFICATION_TYPE>U</CLASSIFICATION_TYPE><NORAD_CAT_ID>48055</NORAD_CAT_ID><ELEMENT_SET_NO>999</ELEMENT_SET_NO><REV_AT_EPOCH>22316</REV_AT_EPOCH><BSTAR>.15705296E-3</BSTAR><MEAN_MOTION_DOT>.7E-6</MEAN_MOTION_DOT><MEAN_MOTION_DDOT>0</MEAN_MOTION_DDOT></tleParameters></data></segment></body></omm>
<omm id="CCSDS_OMM_VERS" version="2.0">
<header><CREATION_DATE/><ORIGINATOR/></header><body><segment><metadata><OBJECT_NAME>ONEWEB-0162</OBJECT_NAME><OBJECT_ID>2021-025Q</OBJECT_ID><CENTER_NAME>EARTH</CENTER_NAME><REF_FRAME>TEME</REF_FRAME><TIME_SYSTEM>UTC</TIME_SYSTEM><MEAN_ELEMENT_THEORY>SGP4</MEAN_ELEMENT_THEORY></metadata><data><meanElements><EPOCH>2025-10-28T05:53:11.912928</EPOCH><MEAN_MOTION>13.13469047</MEAN_MOTION><ECCENTRICITY>.00017402</ECCENTRICITY><INCLINATION>87.9032</INCLINATION><RA_OF_ASC_NODE>6.3112</RA_OF_ASC_NODE><ARG_OF_PERICENTER>96.6989</ARG_OF_PERICENTER><MEAN_ANOMALY>263.4338</MEAN_ANOMALY></meanElements><tleParameters><EPHEMERIS_TYPE>0</EPHEMERIS_TYPE><CLASSIFICATION_TYPE>U</CLASSIFICATION_TYPE><NORAD_CAT_ID>48056</NORAD_CAT_ID><ELEMENT_SET_NO>999</ELEMENT_SET_NO><REV_AT_EPOCH>22309</REV_AT_EPOCH><BSTAR>.70855607E-2</BSTAR><MEAN_MOTION_DOT>.2601E-4</MEAN_MOTION_DOT><MEAN_MOTION_DDOT>0</MEAN_MOTION_DDOT></tleParameters></data></segment></body></omm>
<omm id="CCSDS_OMM_VERS" version="2.0">
<header><CREATION_DATE/><ORIGINATOR/></header><body><segment><metadata><OBJECT_NAME>ONEWEB-0155</OBJECT_NAME><OBJECT_ID>2021-025R</OBJECT_ID><CENTER_NAME>EARTH</CENTER_NAME><REF_FRAME>TEME</REF_FRAME><TIME_SYSTEM>UTC</TIME_SYSTEM><MEAN_ELEMENT_THEORY>SGP4</MEAN_ELEMENT_THEORY></metadata><data><meanElements><EPOCH>2025-10-28T15:11:37.483872</EPOCH><MEAN_MOTION>13.13468335</MEAN_MOTION><ECCENTRICITY>.0002026</ECCENTRICITY><INCLINATION>87.9036</INCLINATION><RA_OF_ASC_NODE>6.2403</RA_OF_ASC_NODE><ARG_OF_PERICENTER>100.7386</ARG_OF_PERICENTER><MEAN_ANOMALY>259.3972</MEAN_ANOMALY></meanElements><tleParameters><EPHEMERIS_TYPE>0</EPHEMERIS_TYPE><CLASSIFICATION_TYPE>U</CLASSIFICATION_TYPE><NORAD_CAT_ID>48057</NORAD_CAT_ID><ELEMENT_SET_NO>999</ELEMENT_SET_NO><REV_AT_EPOCH>22328</REV_AT_EPOCH><BSTAR>.1031055E-2</BSTAR><MEAN_MOTION_DOT>.389E-5</MEAN_MOTION_DOT><MEAN_MOTION_DDOT>0</MEAN_MOTION_DDOT></tleParameters></data></segment></body></omm>
<omm id="CCSDS_OMM_VERS" version="2.0">
<header><CREATION_DATE/><ORIGINATOR/></header><body><segment><metadata><OBJECT_NAME>ONEWEB-0149</OBJECT_NAME><OBJECT_ID>2021-025S</OBJECT_ID><CENTER_NAME>EARTH</CENTER_NAME><REF_FRAME>TEME</REF_FRAME><TIME_SYSTEM>UTC</TIME_SYSTEM><MEAN_ELEMENT_THEORY>SGP4</MEAN_ELEMENT_THEORY></metadata><data><meanElements><EPOCH>2025-10-28T10:14:12.832224</EPOCH><MEAN_MOTION>13.13471280</MEAN_MOTION><ECCENTRICITY>.00016898</ECCENTRICITY><INCLINATION>87.9039</INCLINATION><RA_OF_ASC_NODE>6.2754</RA_OF_ASC_NODE><ARG_OF_PERICENTER>93.8889</ARG_OF_PERICENTER><MEAN_ANOMALY>266.2434</MEAN_ANOMALY></meanElements><tleParameters><EPHEMERIS_TYPE>0</EPHEMERIS_TYPE><CLASSIFICATION_TYPE>U</CLASSIFICATION_TYPE><NORAD_CAT_ID>48058</NORAD_CAT_ID><ELEMENT_SET_NO>999</ELEMENT_SET_NO><REV_AT_EPOCH>22306</REV_AT_EPOCH><BSTAR>.97026932E-4</BSTAR><MEAN_MOTION_DOT>.48E-6</MEAN_MOTION_DOT><MEAN_MOTION_DDOT>0</MEAN_MOTION_DDOT></tleParameters></data></segment></body></omm>
<omm id="CCSDS_OMM_VERS" version="2.0">
<header><CREATION_DATE/><ORIGINATOR/></header><body><segment><metadata><OBJECT_NAME>ONEWEB-0148</OBJECT_NAME><OBJECT_ID>2021-025T</OBJECT_ID><CENTER_NAME>EARTH</CENTER_NAME><REF_FRAME>TEME</REF_FRAME><TIME_SYSTEM>UTC</TIME_SYSTEM><MEAN_ELEMENT_THEORY>SGP4</MEAN_ELEMENT_THEORY></metadata><data><meanElements><EPOCH>2025-10-28T14:49:42.700512</EPOCH><MEAN_MOTION>13.13409923</MEAN_MOTION><ECCENTRICITY>.00020292</ECCENTRICITY><INCLINATION>87.9028</INCLINATION><RA_OF_ASC_NODE>6.2597</RA_OF_ASC_NODE><ARG_OF_PERICENTER>77.8238</ARG_OF_PERICENTER><MEAN_ANOMALY>282.3118</MEAN_ANOMALY></meanElements><tleParameters><EPHEMERIS_TYPE>0</EPHEMERIS_TYPE><CLASSIFICATION_TYPE>U</CLASSIFICATION_TYPE><NORAD_CAT_ID>48059</NORAD_CAT_ID><ELEMENT_SET_NO>999</ELEMENT_SET_NO><REV_AT_EPOCH>22321</REV_AT_EPOCH><BSTAR>.34147183E-1</BSTAR><MEAN_MOTION_DOT>.12489E-3</MEAN_MOTION_DOT><MEAN_MOTION_DDOT>0</MEAN_MOTION_DDOT></tleParameters></data></segment></body></omm>

</ndm>
